[{"OBJECT_NAME":"BISONSAT","OBJECT_ID":"2015-058L","EPOCH":"2026-03-09T11:49:35.353056","MEAN_MOTION":15.13791398,"ECCENTRICITY":0.00792382,"INCLINATION":64.7598,"RA_OF_ASC_NODE":135.3937,"ARG_OF_PERICENTER":90.6713,"MEAN_ANOMALY":270.349,"EPHEMERIS_TYPE":0,"CLASSIFICATION_TYPE":"U","NORAD_CAT_ID":40974,"ELEMENT_SET_NO":999,"REV_AT_EPOCH":10051,"BSTAR":0.0006711096,"MEAN_MOTION_DOT":0.00012971,"MEAN_MOTION_DDOT":0},{"OBJECT_NAME":"STARLINK-30119","OBJECT_ID":"2023-079A","EPOCH":"2026-03-09T22:00:01.999584","MEAN_MOTION":15.19202714,"ECCENTRICITY":0.00015032,"INCLINATION":42.9996,"RA_OF_ASC_NODE":105.4949,"ARG_OF_PERICENTER":287.4614,"MEAN_ANOMALY":161.0846,"EPHEMERIS_TYPE":0,"CLASSIFICATION_TYPE":"U","NORAD_CAT_ID":56823,"ELEMENT_SET_NO":999,"REV_AT_EPOCH":578,"BSTAR":0.053394577,"MEAN_MOTION_DOT":0.01254132,"MEAN_MOTION_DDOT":0}]
